[Satellite]
VERSION=1.1
NAME=LUCH 5A
NICKNAME=LUCH 5A
TLE1=1 37951U 11074B   15054.74876860 -.00000073  00000-0  00000+0 0  9999
TLE2=2 37951   2.4514 240.9403 0002274  75.6985 273.1570  1.00271305 11758
